[{"OBJECT_NAME":"COSMOS 2455","OBJECT_ID":"2009-063A","EPOCH":"2026-03-09T13:30:30.596832","MEAN_MOTION":13.97040814,"ECCENTRICITY":0.000641,"INCLINATION":67.1475,"RA_OF_ASC_NODE":135.1864,"ARG_OF_PERICENTER":244.9363,"MEAN_ANOMALY":115.1057,"EPHEMERIS_TYPE":0,"CLASSIFICATION_TYPE":"U","NORAD_CAT_ID":36095,"ELEMENT_SET_NO":999,"REV_AT_EPOCH":83121,"BSTAR":3.8777e-5,"MEAN_MOTION_DOT":-2.1e-7,"MEAN_MOTION_DDOT":0},{"OBJECT_NAME":"SL-16 DEB","OBJECT_ID":"1992-093AM","EPOCH":"2026-03-09T09:34:48.563616","MEAN_MOTION":14.09343387,"ECCENTRICITY":0.01036732,"INCLINATION":71.2595,"RA_OF_ASC_NODE":53.909,"ARG_OF_PERICENTER":173.7085,"MEAN_ANOMALY":344.9997,"EPHEMERIS_TYPE":0,"CLASSIFICATION_TYPE":"U","NORAD_CAT_ID":22348,"ELEMENT_SET_NO":999,"REV_AT_EPOCH":69932,"BSTAR":0.00027258701,"MEAN_MOTION_DOT":4.55e-6,"MEAN_MOTION_DDOT":0}]
